QIANFAN-57              
1 62787U 25016C   25304.83063955  .00000072  00000+0  92978-4 0  9994
2 62787  88.9750 107.5239 0000904  94.7809 265.3445 13.50977123 41547
QIANFAN-58              
1 62788U 25016D   25304.80181874  .00000070  00000+0  89937-4 0  9992
2 62788  88.9720 107.3714 0015552 103.4394 256.8491 13.50976735 41581
QIANFAN-59              
1 62789U 25016E   25304.82649922  .00000083  00000+0  11013-3 0  9991
2 62789  88.9743 107.4325 0015917 106.8127 253.4771 13.50976207 41580
QIANFAN-60              
1 62790U 25016F   25304.78550551  .00000085  00000+0  11302-3 0  9990
2 62790  88.9724 107.4164 0017459 103.8388 256.4707 13.50972977 41561
QIANFAN-61              
1 62791U 25016G   25304.74417861  .00000081  00000+0  10599-3 0  9996
2 62791  88.9791 107.5549 0016406 103.2996 256.9986 13.50976425 41571
QIANFAN-62              
1 62792U 25016H   25304.82251780  .00000074  00000+0  95800-4 0  9993
2 62792  88.9738 107.4380 0017791 103.5611 256.7524 13.50980078 41575
QIANFAN-63              
1 62793U 25016J   25304.84711588  .00000073  00000+0  94318-4 0  9995
2 62793  88.9745 107.3841 0017802 108.3298 251.9791 13.50973244 41617
QIANFAN-64              
1 62794U 25016K   25304.81416465  .00000077  00000+0  10079-3 0  9994
2 62794  88.9731 107.3672 0015783 101.8908 258.4014 13.50974998 41603
